{"type": "FeatureCollection", "features": [ {"type": "Feature", "properties": {"norad_id": 29953, "name": "FENGYUN 1C DEB", "group": "fengyun-1c-debris", "lat": 10.37450271514349, "lon": 148.3237374554212, "alt_km": 961.8523802507079, "timestamp": "2025-12-05T11:32:56.291267+00:00", "meta": {"OBJECT_NAME": "FENGYUN 1C DEB", "OBJECT_ID": "1999-025KB", "EPOCH": "2025-12-04T05:27:51.322176", "MEAN_MOTION": 13.90831573, "ECCENTRICITY": 0.0105698, "INCLINATION": 98.937, "RA_OF_ASC_NODE": 325.467, "ARG_OF_PERICENTER": 290.061, "MEAN_ANOMALY": 87.402, "EPHEMERIS_TYPE": 0, "CLASSIFICATION_TYPE": "U", "NORAD_CAT_ID": 29953, "ELEMENT_SET_NO": 999, "REV_AT_EPOCH": 95744, "BSTAR": 0.00059652, "MEAN_MOTION_DOT": 7.38e-06, "MEAN_MOTION_DDOT": 0}, "tle": {"line1": "1 29953U 99025KB  25338.22767734  .00000738  00000+0  59652-3 0  9999", "line2": "2 29953  98.9370 325.4670 0105698 290.0610  87.4020 13.90831573957440"}}, "geometry": {"type": "Point", "coordinates": [148.3237374554212, 10.37450271514349]}}, {"type": "Feature", "properties": {"norad_id": 29954, "name": "FENGYUN 1C DEB", "group": "fengyun-1c-debris", "lat": 67.69310474055644, "lon": -9.575334126393148, "alt_km": 811.7431117697515, "timestamp": "2025-12-05T11:32:56.291277+00:00", "meta": {"OBJECT_NAME": "FENGYUN 1C DEB", "OBJECT_ID": "1999-025KC", "EPOCH": "2025-12-04T13:27:21.704832", "MEAN_MOTION": 14.34172438, "ECCENTRICITY": 0.0074162, "INCLINATION": 100.1511, "RA_OF_ASC_NODE": 15.2387, "ARG_OF_PERICENTER": 292.4373, "MEAN_ANOMALY": 66.8963, "EPHEMERIS_TYPE": 0, "CLASSIFICATION_TYPE": "U", "NORAD_CAT_ID": 29954, "ELEMENT_SET_NO": 999, "REV_AT_EPOCH": 98070, "BSTAR": 0.0019831, "MEAN_MOTION_DOT": 5.677e-05, "MEAN_MOTION_DDOT": 0}, "tle": {"line1": "1 29954U 99025KC  25338.56066788  .00005677  00000+0  19831-2 0  9999", "line2": "2 29954 100.1511  15.2387 0074162 292.4373  66.8963 14.34172438980705"}}, "geometry": {"type": "Point", "coordinates": [-9.575334126393148, 67.69310474055644]}}, {"type": "Feature", "properties": {"norad_id": 29955, "name": "FENGYUN 1C DEB", "group": "fengyun-1c-debris", "lat": 57.348971037959856, "lon": 44.79981239955546, "alt_km": 763.4600212696159, "timestamp": "2025-12-05T11:32:56.291287+00:00", "meta": {"OBJECT_NAME": "FENGYUN 1C DEB", "OBJECT_ID": "1999-025KD", "EPOCH": "2025-12-03T11:08:43.281312", "MEAN_MOTION": 14.38099788, "ECCENTRICITY": 0.0007042, "INCLINATION": 99.2754, "RA_OF_ASC_NODE": 57.3996, "ARG_OF_PERICENTER": 275.1774, "MEAN_ANOMALY": 147.7914, "EPHEMERIS_TYPE": 0, "CLASSIFICATION_TYPE": "U", "NORAD_CAT_ID": 29955, "ELEMENT_SET_NO": 999, "REV_AT_EPOCH": 97928, "BSTAR": 0.0022128322, "MEAN_MOTION_DOT": 6.664e-05, "MEAN_MOTION_DDOT": 0}, "tle": {"line1": "1 29955U 99025KD  25337.46438983  .00006664  00000+0  22128-2 0  9998", "line2": "2 29955  99.2754  57.3996 0007042 275.1774 147.7914 14.38099788979288"}}, "geometry": {"type": "Point", "coordinates": [44.79981239955546, 57.348971037959856]}}, {"type": "Feature", "properties": {"norad_id": 29956, "name": "FENGYUN 1C DEB", "group": "fengyun-1c-debris", "lat": -56.982921178430864, "lon": 174.76774153721976, "alt_km": 916.3055779320794, "timestamp": "2025-12-05T11:32:56.291298+00:00", "meta": {"OBJECT_NAME": "FENGYUN 1C DEB", "OBJECT_ID": "1999-025KE", "EPOCH": "2025-12-04T16:10:26.637024", "MEAN_MOTION": 14.06168641, "ECCENTRICITY": 0.0054053, "INCLINATION": 98.7926, "RA_OF_ASC_NODE": 7.7627, "ARG_OF_PERICENTER": 40.0288, "MEAN_ANOMALY": 73.7763, "EPHEMERIS_TYPE": 0, "CLASSIFICATION_TYPE": "U", "NORAD_CAT_ID": 29956, "ELEMENT_SET_NO": 999, "REV_AT_EPOCH": 96936, "BSTAR": 0.00022907, "MEAN_MOTION_DOT": 3.39e-06, "MEAN_MOTION_DDOT": 0}, "tle": {"line1": "1 29956U 99025KE  25338.67391941  .00000339  00000+0  22907-3 0  9994", "line2": "2 29956  98.7926   7.7627 0054053  40.0288  73.7763 14.06168641969365"}}, "geometry": {"type": "Point", "coordinates": [174.76774153721976, -56.982921178430864]}}, {"type": "Feature", "properties": {"norad_id": 29957, "name": "FENGYUN 1C DEB", "group": "fengyun-1c-debris", "lat": -23.75779126358154, "lon": -77.94948976982565, "alt_km": 701.1898503101693, "timestamp": "2025-12-05T11:32:56.291308+00:00", "meta": {"OBJECT_NAME": "FENGYUN 1C DEB", "OBJECT_ID": "1999-025KF", "EPOCH": "2025-12-04T08:24:34.165152", "MEAN_MOTION": 14.50613787, "ECCENTRICITY": 0.0038967, "INCLINATION": 98.9213, "RA_OF_ASC_NODE": 104.8174, "ARG_OF_PERICENTER": 202.1017, "MEAN_ANOMALY": 219.6413, "EPHEMERIS_TYPE": 0, "CLASSIFICATION_TYPE": "U", "NORAD_CAT_ID": 29957, "ELEMENT_SET_NO": 999, "REV_AT_EPOCH": 97370, "BSTAR": 0.012975, "MEAN_MOTION_DOT": 0.00051743, "MEAN_MOTION_DDOT": 0}, "tle": {"line1": "1 29957U 99025KF  25338.35039543  .00051743  00000+0  12975-1 0  9994", "line2": "2 29957  98.9213 104.8174 0038967 202.1017 219.6413 14.50613787973701"}}, "geometry": {"type": "Point", "coordinates": [-77.94948976982565, -23.75779126358154]}}, {"type": "Feature", "properties": {"norad_id": 29958, "name": "FENGYUN 1C DEB", "group": "fengyun-1c-debris", "lat": -11.27903629532493, "lon": -4.195311448440384, "alt_km": 809.0787406290028, "timestamp": "2025-12-05T11:32:56.291319+00:00", "meta": {"OBJECT_NAME": "FENGYUN 1C DEB", "OBJECT_ID": "1999-025KG", "EPOCH": "2025-12-04T13:31:54.359904", "MEAN_MOTION": 14.14440273, "ECCENTRICITY": 0.0054766, "INCLINATION": 98.6688, "RA_OF_ASC_NODE": 353.1707, "ARG_OF_PERICENTER": 356.7442, "MEAN_ANOMALY": 3.3367, "EPHEMERIS_TYPE": 0, "CLASSIFICATION_TYPE": "U", "NORAD_CAT_ID": 29958, "ELEMENT_SET_NO": 999, "REV_AT_EPOCH": 97335, "BSTAR": 0.00057894, "MEAN_MOTION_DOT": 1.082e-05, "MEAN_MOTION_DDOT": 0}, "tle": {"line1": "1 29958U 99025KG  25338.56382361  .00001082  00000+0  57894-3 0  9999", "line2": "2 29958  98.6688 353.1707 0054766 356.7442   3.3367 14.14440273973354"}}, "geometry": {"type": "Point", "coordinates": [-4.195311448440384, -11.27903629532493]}}, {"type": "Feature", "properties": {"norad_id": 29959, "name": "FENGYUN 1C DEB", "group": "fengyun-1c-debris", "lat": -5.602433438466384, "lon": -170.52749301047936, "alt_km": 905.7589274462671, "timestamp": "2025-12-05T11:32:56.291329+00:00", "meta": {"OBJECT_NAME": "FENGYUN 1C DEB", "OBJECT_ID": "1999-025KH", "EPOCH": "2025-12-04T14:45:54.633024", "MEAN_MOTION": 14.06009027, "ECCENTRICITY": 0.0041985, "INCLINATION": 98.8091, "RA_OF_ASC_NODE": 9.5019, "ARG_OF_PERICENTER": 350.9781, "MEAN_ANOMALY": 133.8139, "EPHEMERIS_TYPE": 0, "CLASSIFICATION_TYPE": "U", "NORAD_CAT_ID": 29959, "ELEMENT_SET_NO": 999, "REV_AT_EPOCH": 96826, "BSTAR": 0.00037609, "MEAN_MOTION_DOT": 5.78e-06, "MEAN_MOTION_DDOT": 0}, "tle": {"line1": "1 29959U 99025KH  25338.61521566  .00000578  00000+0  37609-3 0  9999", "line2": "2 29959  98.8091   9.5019 0041985 350.9781 133.8139 14.06009027968263"}}, "geometry": {"type": "Point", "coordinates": [-170.52749301047936, -5.602433438466384]}}, {"type": "Feature", "properties": {"norad_id": 29960, "name": "FENGYUN 1C DEB", "group": "fengyun-1c-debris", "lat": -9.132002847381287, "lon": -33.31897301120802, "alt_km": 793.5825433772297, "timestamp": "2025-12-05T11:32:56.291339+00:00", "meta": {"OBJECT_NAME": "FENGYUN 1C DEB", "OBJECT_ID": "1999-025KJ", "EPOCH": "2025-12-03T22:32:54.141792", "MEAN_MOTION": 14.16375252, "ECCENTRICITY": 0.00912875, "INCLINATION": 98.6135, "RA_OF_ASC_NODE": 323.7931, "ARG_OF_PERICENTER": 311.7921, "MEAN_ANOMALY": 101.7752, "EPHEMERIS_TYPE": 0, "CLASSIFICATION_TYPE": "U", "NORAD_CAT_ID": 29960, "ELEMENT_SET_NO": 999, "REV_AT_EPOCH": 97330, "BSTAR": 0.00085568592, "MEAN_MOTION_DOT": 1.727e-05, "MEAN_MOTION_DDOT": 0}, "tle": {"line1": "1 29960U 99025KJ  25337.93951553  .00001727  00000+0  85569-3 0  9993", "line2": "2 29960  98.6135 323.7931 0091287 311.7921 101.7752 14.16375252973300"}}, "geometry": {"type": "Point", "coordinates": [-33.31897301120802, -9.132002847381287]}}, {"type": "Feature", "properties": {"norad_id": 29961, "name": "FENGYUN 1C DEB", "group": "fengyun-1c-debris", "lat": -77.18518512356337, "lon": 2.86911933923759, "alt_km": 789.0073749774429, "timestamp": "2025-12-05T11:32:56.291350+00:00", "meta": {"OBJECT_NAME": "FENGYUN 1C DEB", "OBJECT_ID": "1999-025KK", "EPOCH": "2025-12-04T15:48:10.963008", "MEAN_MOTION": 14.26201902, "ECCENTRICITY": 0.0074508, "INCLINATION": 98.9487, "RA_OF_ASC_NODE": 225.8737, "ARG_OF_PERICENTER": 328.3909, "MEAN_ANOMALY": 31.2806, "EPHEMERIS_TYPE": 0, "CLASSIFICATION_TYPE": "U", "NORAD_CAT_ID": 29961, "ELEMENT_SET_NO": 999, "REV_AT_EPOCH": 98194, "BSTAR": 0.00038678, "MEAN_MOTION_DOT": 9.07e-06, "MEAN_MOTION_DDOT": 0}, "tle": {"line1": "1 29961U 99025KK  25338.65846022  .00000907  00000+0  38678-3 0  9996", "line2": "2 29961  98.9487 225.8737 0074508 328.3909  31.2806 14.26201902981944"}}, "geometry": {"type": "Point", "coordinates": [2.86911933923759, -77.18518512356337]}}, {"type": "Feature", "properties": {"norad_id": 29962, "name": "FENGYUN 1C DEB", "group": "fengyun-1c-debris", "lat": -29.956794064348717, "lon": 162.76743927407324, "alt_km": 807.1788840491217, "timestamp": "2025-12-05T11:32:56.291361+00:00", "meta": {"OBJECT_NAME": "FENGYUN 1C DEB", "OBJECT_ID": "1999-025KL", "EPOCH": "2025-12-04T12:59:09.731904", "MEAN_MOTION": 14.07150068, "ECCENTRICITY": 0.0109461, "INCLINATION": 98.7687, "RA_OF_ASC_NODE": 346.959, "ARG_OF_PERICENTER": 244.4625, "MEAN_ANOMALY": 246.6619, "EPHEMERIS_TYPE": 0, "CLASSIFICATION_TYPE": "U", "NORAD_CAT_ID": 29962, "ELEMENT_SET_NO": 999, "REV_AT_EPOCH": 96882, "BSTAR": 0.00035839, "MEAN_MOTION_DOT": 5.9e-06, "MEAN_MOTION_DDOT": 0}, "tle": {"line1": "1 29962U 99025KL  25338.54108486  .00000590  00000+0  35839-3 0  9994", "line2": "2 29962  98.7687 346.9590 0109461 244.4625 246.6619 14.07150068968828"}}, "geometry": {"type": "Point", "coordinates": [162.76743927407324, -29.956794064348717]}}]}